{
  "type": "FeatureCollection",
  "features": [
    {
      "type": "Feature",
      "geometry": {
        "type": "Point",
        "coordinates": [
          4.85794783,
          52.40771103
        ]
      },
      "properties": {
        "netid": "82:6B:F2:08:1F:08",
        "ssid": "Redmi 13C",
        "oui": "82:6B:F2",
        "channel": 11,
        "encryption": "wpa2",
        "firsttime": "2026-01-07T14:00:00.000Z",
        "lasttime": "2026-02-21T11:00:00.000Z",
        "city": "Amsterdam",
        "region": "Noord-Holland",
        "country": "NL",
        "road": "Ringweg-West",
        "postalcode": "1013BS"
      }
    },
    {
      "type": "Feature",
      "geometry": {
        "type": "Point",
        "coordinates": [
          121.27791595,
          31.25595284
        ]
      },
      "properties": {
        "netid": "82:6B:F2:25:58:00",
        "ssid": "\u90ed",
        "oui": "82:6B:F2",
        "channel": 1,
        "encryption": "wpa2",
        "firsttime": "2025-07-17T05:00:00.000Z",
        "lasttime": "2025-07-16T23:00:00.000Z",
        "city": "\u5609\u5b9a\u533a",
        "region": "\u5609\u5b9a\u533a",
        "country": "CN",
        "road": "\u6caa\u5b81\u9ad8\u901f",
        "postalcode": "201803"
      }
    },
    {
      "type": "Feature",
      "geometry": {
        "type": "Point",
        "coordinates": [
          -3.39179802,
          51.74941635
        ]
      },
      "properties": {
        "netid": "82:6B:F2:27:E5:13",
        "ssid": "Audi_MMI_0560",
        "oui": "82:6B:F2",
        "channel": 6,
        "encryption": "wpa3",
        "firsttime": "2026-05-16T08:00:00.000Z",
        "lasttime": "2026-05-16T02:00:00.000Z",
        "city": null,
        "region": "Cymru / Wales",
        "country": "GB",
        "road": "Swansea Road",
        "postalcode": "CF48 1HY"
      }
    },
    {
      "type": "Feature",
      "geometry": {
        "type": "Point",
        "coordinates": [
          -7.49759102,
          40.15146255
        ]
      },
      "properties": {
        "netid": "82:6B:F2:29:27:02",
        "ssid": "Galaxy S24 5305",
        "oui": "82:6B:F2",
        "channel": 10,
        "encryption": "wpa2",
        "firsttime": "2025-07-31T18:00:00.000Z",
        "lasttime": "2025-07-31T12:00:00.000Z",
        "city": "Fund\u00e3o",
        "region": "Castelo Branco",
        "country": "PT",
        "road": "Rua Belarmino Barata",
        "postalcode": "6230-279"
      }
    },
    {
      "type": "Feature",
      "geometry": {
        "type": "Point",
        "coordinates": [
          -111.55483246,
          35.3384552
        ]
      },
      "properties": {
        "netid": "82:6B:F2:29:DB:5C",
        "ssid": "STARLINK",
        "oui": "82:6B:F2",
        "channel": 1,
        "encryption": "wpa2",
        "firsttime": "2025-04-23T18:00:00.000Z",
        "lasttime": "2026-01-13T21:00:00.000Z",
        "city": null,
        "region": "AZ",
        "country": "US",
        "road": "US 89",
        "postalcode": null
      }
    },
    {
      "type": "Feature",
      "geometry": {
        "type": "Point",
        "coordinates": [
          -82.38832092,
          29.62687874
        ]
      },
      "properties": {
        "netid": "82:6B:F2:2E:DE:4C",
        "ssid": "Galaxy S20 FE 5G 6AD6",
        "oui": "82:6B:F2",
        "channel": 1,
        "encryption": "wpa2",
        "firsttime": "2026-04-28T17:00:00.000Z",
        "lasttime": "2026-04-28T13:00:00.000Z",
        "city": "Gainesville",
        "region": "FL",
        "country": "US",
        "road": "Southwest 42nd Street",
        "postalcode": "32608"
      }
    },
    {
      "type": "Feature",
      "geometry": {
        "type": "Point",
        "coordinates": [
          -111.55605316,
          35.33939743
        ]
      },
      "properties": {
        "netid": "82:6B:F2:39:DB:5C",
        "ssid": "STARLINK",
        "oui": "82:6B:F2",
        "channel": 40,
        "encryption": "wpa2",
        "firsttime": "2025-04-23T21:00:00.000Z",
        "lasttime": "2025-08-05T16:00:00.000Z",
        "city": null,
        "region": "AZ",
        "country": "US",
        "road": "US 89",
        "postalcode": null
      }
    },
    {
      "type": "Feature",
      "geometry": {
        "type": "Point",
        "coordinates": [
          -111.55544281,
          35.33898163
        ]
      },
      "properties": {
        "netid": "82:6B:F2:49:DB:5C",
        "ssid": null,
        "oui": "82:6B:F2",
        "channel": 1,
        "encryption": "wpa2",
        "firsttime": "2025-05-26T16:00:00.000Z",
        "lasttime": "2025-08-05T16:00:00.000Z",
        "city": null,
        "region": "AZ",
        "country": "US",
        "road": "US 89",
        "postalcode": null
      }
    },
    {
      "type": "Feature",
      "geometry": {
        "type": "Point",
        "coordinates": [
          -97.74506378,
          30.30574036
        ]
      },
      "properties": {
        "netid": "82:6B:F2:52:57:29",
        "ssid": null,
        "oui": "82:6B:F2",
        "channel": 0,
        "encryption": "unknown",
        "firsttime": "2026-05-14T06:00:00.000Z",
        "lasttime": "2026-05-14T17:00:00.000Z",
        "city": "Austin",
        "region": "TX",
        "country": "US",
        "road": "West 38th Street",
        "postalcode": "78705"
      }
    },
    {
      "type": "Feature",
      "geometry": {
        "type": "Point",
        "coordinates": [
          -111.55606079,
          35.33940125
        ]
      },
      "properties": {
        "netid": "82:6B:F2:59:DB:5C",
        "ssid": null,
        "oui": "82:6B:F2",
        "channel": 40,
        "encryption": "wpa2",
        "firsttime": "2025-04-23T21:00:00.000Z",
        "lasttime": "2025-08-05T16:00:00.000Z",
        "city": null,
        "region": "AZ",
        "country": "US",
        "road": "US 89",
        "postalcode": null
      }
    },
    {
      "type": "Feature",
      "geometry": {
        "type": "Point",
        "coordinates": [
          121.44694519,
          24.9896698
        ]
      },
      "properties": {
        "netid": "82:6B:F2:65:1E:42",
        "ssid": "\u5b97\u8f1d's Galaxy A52s 5G",
        "oui": "82:6B:F2",
        "channel": 11,
        "encryption": "wpa2",
        "firsttime": "2022-09-04T17:00:00.000Z",
        "lasttime": "2025-06-13T09:00:00.000Z",
        "city": "\u65b0\u5317\u5e02",
        "region": "\u65b0\u5317\u5e02",
        "country": "TW",
        "road": "\u4e2d\u83ef\u8def\u4e00\u6bb5",
        "postalcode": "236"
      }
    },
    {
      "type": "Feature",
      "geometry": {
        "type": "Point",
        "coordinates": [
          -111.55419159,
          35.33792114
        ]
      },
      "properties": {
        "netid": "82:6B:F2:69:DB:5C",
        "ssid": null,
        "oui": "82:6B:F2",
        "channel": 1,
        "encryption": "wpa2",
        "firsttime": "2025-05-26T16:00:00.000Z",
        "lasttime": "2026-01-13T21:00:00.000Z",
        "city": null,
        "region": "AZ",
        "country": "US",
        "road": "US 89",
        "postalcode": null
      }
    },
    {
      "type": "Feature",
      "geometry": {
        "type": "Point",
        "coordinates": [
          -120.36457825,
          34.83016586
        ]
      },
      "properties": {
        "netid": "82:6B:F2:70:49:FE",
        "ssid": "CHEVROLET9505",
        "oui": "82:6B:F2",
        "channel": 6,
        "encryption": "wpa3",
        "firsttime": "2001-01-01T00:00:00.000Z",
        "lasttime": "2026-07-20T03:00:00.000Z",
        "city": null,
        "region": "CA",
        "country": "US",
        "road": "US 101",
        "postalcode": null
      }
    },
    {
      "type": "Feature",
      "geometry": {
        "type": "Point",
        "coordinates": [
          -96.93321991,
          30.18275261
        ]
      },
      "properties": {
        "netid": "82:6B:F2:85:A0:B1",
        "ssid": null,
        "oui": "82:6B:F2",
        "channel": 0,
        "encryption": "unknown",
        "firsttime": "2019-02-14T10:00:00.000Z",
        "lasttime": "2025-08-13T18:00:00.000Z",
        "city": null,
        "region": "TX",
        "country": "US",
        "road": "East Austin Street",
        "postalcode": "78942"
      }
    },
    {
      "type": "Feature",
      "geometry": {
        "type": "Point",
        "coordinates": [
          -111.55326843,
          35.33713531
        ]
      },
      "properties": {
        "netid": "82:6B:F2:89:DB:5C",
        "ssid": null,
        "oui": "82:6B:F2",
        "channel": 1,
        "encryption": "wpa2",
        "firsttime": "2026-01-14T01:00:00.000Z",
        "lasttime": "2026-03-27T14:00:00.000Z",
        "city": null,
        "region": "AZ",
        "country": "US",
        "road": "US 89",
        "postalcode": null
      }
    },
    {
      "type": "Feature",
      "geometry": {
        "type": "Point",
        "coordinates": [
          46.69985199,
          24.89710999
        ]
      },
      "properties": {
        "netid": "82:6B:F2:92:CC:56",
        "ssid": "CHEVROLET7588",
        "oui": "82:6B:F2",
        "channel": 6,
        "encryption": "wpa3",
        "firsttime": "2026-02-26T09:00:00.000Z",
        "lasttime": "2026-02-26T07:00:00.000Z",
        "city": null,
        "region": "\u0645\u0646\u0637\u0642\u0629 \u0627\u0644\u0631\u064a\u0627\u0636",
        "country": "SA",
        "road": "\u0637\u0631\u064a\u0642 \u0627\u0644\u0645\u0644\u0643 \u0633\u0644\u0645\u0627\u0646",
        "postalcode": "13328"
      }
    },
    {
      "type": "Feature",
      "geometry": {
        "type": "Point",
        "coordinates": [
          21.55420494,
          41.34516144
        ]
      },
      "properties": {
        "netid": "82:6B:F2:B8:B2:08",
        "ssid": null,
        "oui": "82:6B:F2",
        "channel": 149,
        "encryption": "wpa3",
        "firsttime": "2024-09-25T10:00:00.000Z",
        "lasttime": "2024-09-25T06:00:00.000Z",
        "city": "\u041f\u0440\u0438\u043b\u0435\u043f",
        "region": "\u041f\u0435\u043b\u0430\u0433\u043e\u043d\u0438\u0441\u043a\u0438 \u0421\u0420",
        "country": "MK",
        "road": "\u0411\u043e\u0440\u043a\u0430 \u0422\u0430\u043b\u0435\u0441\u043a\u0438-\u041c\u043e\u0434\u0435\u0440\u043d\u043e\u0442\u043e",
        "postalcode": "7500"
      }
    },
    {
      "type": "Feature",
      "geometry": {
        "type": "Point",
        "coordinates": [
          17.21377563,
          49.5696373
        ]
      },
      "properties": {
        "netid": "82:6B:F2:E0:26:54",
        "ssid": "Hoto spoto",
        "oui": "82:6B:F2",
        "channel": 11,
        "encryption": "wpa2",
        "firsttime": "2025-10-25T14:00:00.000Z",
        "lasttime": "2025-10-25T07:00:00.000Z",
        "city": "Olomouc",
        "region": "St\u0159edn\u00ed Morava",
        "country": "CZ",
        "road": "D46",
        "postalcode": "783 01"
      }
    },
    {
      "type": "Feature",
      "geometry": {
        "type": "Point",
        "coordinates": [
          -72.97933197,
          43.46203995
        ]
      },
      "properties": {
        "netid": "82:6B:F2:EB:EC:19",
        "ssid": null,
        "oui": "82:6B:F2",
        "channel": 149,
        "encryption": "unknown",
        "firsttime": "2026-08-18T01:00:00.000Z",
        "lasttime": "2026-08-18T08:00:00.000Z",
        "city": null,
        "region": "VT",
        "country": "US",
        "road": "US 7",
        "postalcode": "05773"
      }
    },
    {
      "type": "Feature",
      "geometry": {
        "type": "Point",
        "coordinates": [
          110.27425385,
          -7.10399008
        ]
      },
      "properties": {
        "netid": "82:6B:F2:F1:A7:79",
        "ssid": "Sumbangan data untuk rakyat",
        "oui": "82:6B:F2",
        "channel": 6,
        "encryption": "wpa2",
        "firsttime": "2026-06-18T12:00:00.000Z",
        "lasttime": "2026-06-18T19:00:00.000Z",
        "city": null,
        "region": "Jawa Tengah",
        "country": "ID",
        "road": null,
        "postalcode": null
      }
    },
    {
      "type": "Feature",
      "geometry": {
        "type": "Point",
        "coordinates": [
          -46.56625366,
          -23.53381729
        ]
      },
      "properties": {
        "netid": "82:6B:F2:FF:3E:28",
        "ssid": "Redmi 12",
        "oui": "82:6B:F2",
        "channel": 12,
        "encryption": "wpa2",
        "firsttime": "2025-07-13T08:00:00.000Z",
        "lasttime": "2025-07-25T15:00:00.000Z",
        "city": "S\u00e3o Paulo",
        "region": "S\u00e3o Paulo",
        "country": "BR",
        "road": "Avenida Celso Garcia",
        "postalcode": "03064-000"
      }
    }
  ],
  "properties": {
    "generated": "2026-08-26T06:30:55.794008+00:00",
    "oui": "82:6B:F2",
    "source": "WiGLE (wigle.net)",
    "project": "flock-finder",
    "total_cameras": 21
  }
}