{
  "type": "FeatureCollection",
  "features": [
    {
      "type": "Feature",
      "geometry": {
        "type": "Point",
        "coordinates": [
          -71.21026611,
          42.370224
        ]
      },
      "properties": {
        "netid": "B8:35:32:08:A5:EB",
        "ssid": "DQ 97M",
        "oui": "B8:35:32",
        "channel": 7,
        "encryption": "none",
        "firsttime": "2026-02-06T21:00:00.000Z",
        "lasttime": "2026-02-06T23:00:00.000Z",
        "city": null,
        "region": "MA",
        "country": "US",
        "road": "Woodview Way",
        "postalcode": "02452-6272"
      }
    }
  ],
  "properties": {
    "generated": "2026-09-05T09:38:12.862809+00:00",
    "oui": "B8:35:32",
    "source": "WiGLE (wigle.net)",
    "project": "flock-finder",
    "total_cameras": 1
  }
}