{
  "type": "FeatureCollection",
  "features": [],
  "properties": {
    "generated": "2026-08-16T06:24:52.463160+00:00",
    "source": "WiGLE (wigle.net)",
    "project": "flock-finder",
    "description": "CANDIDATE Flock Safety ALPR camera locations discovered via SSID-pattern WiGLE queries (Flock%, FLOCK%). OUI prefixes in this file are NOT in the canonical flock_ouis.csv \u2014 they appeared \u22655 times in SSID-matched results and require field verification. match_confidence = 'unconfirmed_candidate'.",
    "match_confidence": "unconfirmed_candidate",
    "total_cameras": 0,
    "candidate_ouis": 0
  }
}